{
  "type": "FeatureCollection",
  "features": [
    {
      "type": "Feature",
      "properties": {
        "norad_id": 43706,
        "name": "BEIDOU-3 M17 (C36)",
        "group": "beidou",
        "lat": -6.1318483820804435,
        "lon": 12.603172476740356,
        "alt_km": 21537.566408433926,
        "timestamp": "2025-12-26T16:33:55.837833+00:00",
        "meta_object_name": "BEIDOU-3 M17 (C36)",
        "meta_object_id": "2018-093A",
        "meta_epoch": "2025-12-26T03:36:39.806208",
        "meta_mean_motion": 1.86228273,
        "meta_eccentricity": 0.00059945,
        "meta_inclination": 54.1735,
        "meta_ra_of_asc_node": 188.1665,
        "meta_arg_of_pericenter": 306.9478,
        "meta_mean_anomaly": 238.7851,
        "meta_ephemeris_type": 0,
        "meta_classification_type": "U",
        "meta_norad_cat_id": 43706,
        "meta_element_set_no": 999,
        "meta_rev_at_epoch": 4831,
        "meta_bstar": 0,
        "meta_mean_motion_dot": 1.19e-06,
        "meta_mean_motion_ddot": 0,
        "tle_line1": "1 43706U 18093A   25360.15046072  .00000119  00000+0  00000+0 0  9991",
        "tle_line2": "2 43706  54.1735 188.1665 0005994 306.9478 238.7851  1.86228273 48315"
      },
      "geometry": {
        "type": "Point",
        "coordinates": [
          12.603172476740356,
          -6.1318483820804435
        ]
      }
    },
    {
      "type": "Feature",
      "properties": {
        "norad_id": 43707,
        "name": "BEIDOU-3 M18 (C37)",
        "group": "beidou",
        "lat": -52.879218597662444,
        "lon": 115.43886341759918,
        "alt_km": 21529.439287358444,
        "timestamp": "2025-12-26T16:33:55.837843+00:00",
        "meta_object_name": "BEIDOU-3 M18 (C37)",
        "meta_object_id": "2018-093B",
        "meta_epoch": "2025-12-23T01:12:21.238848",
        "meta_mean_motion": 1.86226616,
        "meta_eccentricity": 0.0006147,
        "meta_inclination": 54.1741,
        "meta_ra_of_asc_node": 188.2636,
        "meta_arg_of_pericenter": 354.1254,
        "meta_mean_anomaly": 5.9078,
        "meta_ephemeris_type": 0,
        "meta_classification_type": "U",
        "meta_norad_cat_id": 43707,
        "meta_element_set_no": 999,
        "meta_rev_at_epoch": 4825,
        "meta_bstar": 0,
        "meta_mean_motion_dot": 9.6e-07,
        "meta_mean_motion_ddot": 0,
        "tle_line1": "1 43707U 18093B   25357.05024582  .00000096  00000+0  00000+0 0  9993",
        "tle_line2": "2 43707  54.1741 188.2636 0006147 354.1254   5.9078  1.86226616 48257"
      },
      "geometry": {
        "type": "Point",
        "coordinates": [
          115.43886341759918,
          -52.879218597662444
        ]
      }
    },
    {
      "type": "Feature",
      "properties": {
        "norad_id": 44231,
        "name": "BEIDOU-2 G8 (C01)",
        "group": "beidou",
        "lat": 1.383526744756062,
        "lon": 128.46126142544392,
        "alt_km": 35817.02847487778,
        "timestamp": "2025-12-26T16:33:55.837854+00:00",
        "meta_object_name": "BEIDOU-2 G8 (C01)",
        "meta_object_id": "2019-027A",
        "meta_epoch": "2025-12-26T04:27:38.588256",
        "meta_mean_motion": 1.00274017,
        "meta_eccentricity": 0.00083192,
        "meta_inclination": 1.6938,
        "meta_ra_of_asc_node": 74.741,
        "meta_arg_of_pericenter": 259.007,
        "meta_mean_anomaly": 332.6181,
        "meta_ephemeris_type": 0,
        "meta_classification_type": "U",
        "meta_norad_cat_id": 44231,
        "meta_element_set_no": 999,
        "meta_rev_at_epoch": 2434,
        "meta_bstar": 0,
        "meta_mean_motion_dot": -2.25e-06,
        "meta_mean_motion_ddot": 0,
        "tle_line1": "1 44231U 19027A   25360.18586329 -.00000225  00000+0  00000+0 0  9999",
        "tle_line2": "2 44231   1.6938  74.7410 0008319 259.0070 332.6181  1.00274017 24349"
      },
      "geometry": {
        "type": "Point",
        "coordinates": [
          128.46126142544392,
          1.383526744756062
        ]
      }
    },
    {
      "type": "Feature",
      "properties": {
        "norad_id": 44337,
        "name": "BEIDOU-3 IGSO-2 (C39)",
        "group": "beidou",
        "lat": -43.34107638573968,
        "lon": 119.36623735411162,
        "alt_km": 35822.143238221666,
        "timestamp": "2025-12-26T16:33:55.837864+00:00",
        "meta_object_name": "BEIDOU-3 IGSO-2 (C39)",
        "meta_object_id": "2019-035A",
        "meta_epoch": "2025-12-25T18:13:52.363776",
        "meta_mean_motion": 1.00267205,
        "meta_eccentricity": 0.00378775,
        "meta_inclination": 55.2292,
        "meta_ra_of_asc_node": 160.387,
        "meta_arg_of_pericenter": 202.6493,
        "meta_mean_anomaly": 124.2453,
        "meta_ephemeris_type": 0,
        "meta_classification_type": "U",
        "meta_norad_cat_id": 44337,
        "meta_element_set_no": 999,
        "meta_rev_at_epoch": 2392,
        "meta_bstar": 0,
        "meta_mean_motion_dot": -6.4e-07,
        "meta_mean_motion_ddot": 0,
        "tle_line1": "1 44337U 19035A   25359.75963384 -.00000064  00000+0  00000+0 0  9997",
        "tle_line2": "2 44337  55.2292 160.3870 0037877 202.6493 124.2453  1.00267205 23921"
      },
      "geometry": {
        "type": "Point",
        "coordinates": [
          119.36623735411162,
          -43.34107638573968
        ]
      }
    },
    {
      "type": "Feature",
      "properties": {
        "norad_id": 44542,
        "name": "BEIDOU-3 M24 (C46)",
        "group": "beidou",
        "lat": -40.426746672679386,
        "lon": 46.17183205527751,
        "alt_km": 21556.838634083586,
        "timestamp": "2025-12-26T16:33:55.837874+00:00",
        "meta_object_name": "BEIDOU-3 M24 (C46)",
        "meta_object_id": "2019-061A",
        "meta_epoch": "2025-12-25T19:20:31.720416",
        "meta_mean_motion": 1.86229328,
        "meta_eccentricity": 0.00095592,
        "meta_inclination": 54.4007,
        "meta_ra_of_asc_node": 188.5751,
        "meta_arg_of_pericenter": 26.2339,
        "meta_mean_anomaly": 333.8493,
        "meta_ephemeris_type": 0,
        "meta_classification_type": "U",
        "meta_norad_cat_id": 44542,
        "meta_element_set_no": 999,
        "meta_rev_at_epoch": 4256,
        "meta_bstar": 0,
        "meta_mean_motion_dot": 1.16e-06,
        "meta_mean_motion_ddot": 0,
        "tle_line1": "1 44542U 19061A   25359.80592269  .00000116  00000+0  00000+0 0  9997",
        "tle_line2": "2 44542  54.4007 188.5751 0009559  26.2339 333.8493  1.86229328 42560"
      },
      "geometry": {
        "type": "Point",
        "coordinates": [
          46.17183205527751,
          -40.426746672679386
        ]
      }
    },
    {
      "type": "Feature",
      "properties": {
        "norad_id": 44543,
        "name": "BEIDOU-3 M23 (C45)",
        "group": "beidou",
        "lat": 27.254625729979544,
        "lon": -13.14893042486118,
        "alt_km": 21533.375057402027,
        "timestamp": "2025-12-26T16:33:55.837884+00:00",
        "meta_object_name": "BEIDOU-3 M23 (C45)",
        "meta_object_id": "2019-061B",
        "meta_epoch": "2025-12-26T04:09:30.102048",
        "meta_mean_motion": 1.86227478,
        "meta_eccentricity": 0.00059955,
        "meta_inclination": 54.3995,
        "meta_ra_of_asc_node": 188.531,
        "meta_arg_of_pericenter": 25.8567,
        "meta_mean_anomaly": 133.188,
        "meta_ephemeris_type": 0,
        "meta_classification_type": "U",
        "meta_norad_cat_id": 44543,
        "meta_element_set_no": 999,
        "meta_rev_at_epoch": 4257,
        "meta_bstar": 0,
        "meta_mean_motion_dot": 1.19e-06,
        "meta_mean_motion_ddot": 0,
        "tle_line1": "1 44543U 19061B   25360.17326507  .00000119  00000+0  00000+0 0  9993",
        "tle_line2": "2 44543  54.3995 188.5310 0005995  25.8567 133.1880  1.86227478 42571"
      },
      "geometry": {
        "type": "Point",
        "coordinates": [
          -13.14893042486118,
          27.254625729979544
        ]
      }
    },
    {
      "type": "Feature",
      "properties": {
        "norad_id": 44793,
        "name": "BEIDOU-3 M22 (C44)",
        "group": "beidou",
        "lat": -15.959437924850475,
        "lon": -66.06336721589196,
        "alt_km": 21517.92246392127,
        "timestamp": "2025-12-26T16:33:55.837894+00:00",
        "meta_object_name": "BEIDOU-3 M22 (C44)",
        "meta_object_id": "2019-078A",
        "meta_epoch": "2025-12-22T23:04:03.320256",
        "meta_mean_motion": 1.86232206,
        "meta_eccentricity": 0.00060944,
        "meta_inclination": 54.0989,
        "meta_ra_of_asc_node": 306.0279,
        "meta_arg_of_pericenter": 24.0205,
        "meta_mean_anomaly": 336.0117,
        "meta_ephemeris_type": 0,
        "meta_classification_type": "U",
        "meta_norad_cat_id": 44793,
        "meta_element_set_no": 999,
        "meta_rev_at_epoch": 4136,
        "meta_bstar": 0,
        "meta_mean_motion_dot": -5.4e-07,
        "meta_mean_motion_ddot": 0,
        "tle_line1": "1 44793U 19078A   25356.96114954 -.00000054  00000+0  00000+0 0  9990",
        "tle_line2": "2 44793  54.0989 306.0279 0006094  24.0205 336.0117  1.86232206 41368"
      },
      "geometry": {
        "type": "Point",
        "coordinates": [
          -66.06336721589196,
          -15.959437924850475
        ]
      }
    }
  ]
}